[{"OBJECT_NAME":"STARLINK-1453","OBJECT_ID":"2020-035P","EPOCH":"2026-02-28T05:39:28.056960","MEAN_MOTION":15.50137972,"ECCENTRICITY":0.00084315,"INCLINATION":53.0489,"RA_OF_ASC_NODE":58.7816,"ARG_OF_PERICENTER":6.2824,"MEAN_ANOMALY":353.8289,"EPHEMERIS_TYPE":0,"CLASSIFICATION_TYPE":"U","NORAD_CAT_ID":45670,"ELEMENT_SET_NO":999,"REV_AT_EPOCH":31790,"BSTAR":0.0016060934,"MEAN_MOTION_DOT":0.0009274,"MEAN_MOTION_DDOT":0},{"OBJECT_NAME":"STARLINK-1454","OBJECT_ID":"2020-035Q","EPOCH":"2026-02-28T01:52:36.120576","MEAN_MOTION":15.4876429,"ECCENTRICITY":0.00084717,"INCLINATION":53.0514,"RA_OF_ASC_NODE":98.9689,"ARG_OF_PERICENTER":19.9732,"MEAN_ANOMALY":340.1606,"EPHEMERIS_TYPE":0,"CLASSIFICATION_TYPE":"U","NORAD_CAT_ID":45671,"ELEMENT_SET_NO":999,"REV_AT_EPOCH":31742,"BSTAR":0.0015326902,"MEAN_MOTION_DOT":0.00084196,"MEAN_MOTION_DDOT":0},{"OBJECT_NAME":"STARLINK-1456","OBJECT_ID":"2020-035S","EPOCH":"2026-02-28T01:46:17.681664","MEAN_MOTION":15.4939827,"ECCENTRICITY":0.00016013,"INCLINATION":53.0496,"RA_OF_ASC_NODE":92.4482,"ARG_OF_PERICENTER":97.0613,"MEAN_ANOMALY":263.0577,"EPHEMERIS_TYPE":0,"CLASSIFICATION_TYPE":"U","NORAD_CAT_ID":45673,"ELEMENT_SET_NO":999,"REV_AT_EPOCH":31753,"BSTAR":0.00045497628,"MEAN_MOTION_DOT":0.00025018,"MEAN_MOTION_DDOT":0},{"OBJECT_NAME":"STARLINK-1457","OBJECT_ID":"2020-035T","EPOCH":"2026-02-28T06:56:33.249408","MEAN_MOTION":15.75930693,"ECCENTRICITY":0.00100663,"INCLINATION":53.0478,"RA_OF_ASC_NODE":69.4109,"ARG_OF_PERICENTER":31.5997,"MEAN_ANOMALY":328.5625,"EPHEMERIS_TYPE":0,"CLASSIFICATION_TYPE":"U","NORAD_CAT_ID":45674,"ELEMENT_SET_NO":999,"REV_AT_EPOCH":31784,"BSTAR":0.00065772039,"MEAN_MOTION_DOT":0.0010488,"MEAN_MOTION_DDOT":0},{"OBJECT_NAME":"STARLINK-1458","OBJECT_ID":"2020-035U","EPOCH":"2026-02-28T03:41:04.087392","MEAN_MOTION":15.4172813,"ECCENTRICITY":0.00058826,"INCLINATION":53.0525,"RA_OF_ASC_NODE":100.7427,"ARG_OF_PERICENTER":42.6984,"MEAN_ANOMALY":317.4476,"EPHEMERIS_TYPE":0,"CLASSIFICATION_TYPE":"U","NORAD_CAT_ID":45675,"ELEMENT_SET_NO":999,"REV_AT_EPOCH":31738,"BSTAR":0.0019348165,"MEAN_MOTION_DOT":0.00083534,"MEAN_MOTION_DDOT":0},{"OBJECT_NAME":"STARLINK-1460","OBJECT_ID":"2020-035V","EPOCH":"2026-02-28T06:00:02.000160","MEAN_MOTION":15.20438461,"ECCENTRICITY":0.00019312,"INCLINATION":53.1137,"RA_OF_ASC_NODE":108.4405,"ARG_OF_PERICENTER":90.7729,"MEAN_ANOMALY":53.8691,"EPHEMERIS_TYPE":0,"CLASSIFICATION_TYPE":"U","NORAD_CAT_ID":45676,"ELEMENT_SET_NO":999,"REV_AT_EPOCH":583,"BSTAR":0.0024190651,"MEAN_MOTION_DOT":0.00053505,"MEAN_MOTION_DDOT":0},{"OBJECT_NAME":"STARLINK-1392","OBJECT_ID":"2020-035W","EPOCH":"2026-02-28T06:00:02.000160","MEAN_MOTION":15.23117289,"ECCENTRICITY":0.00011991,"INCLINATION":53.1265,"RA_OF_ASC_NODE":108.487,"ARG_OF_PERICENTER":92.1637,"MEAN_ANOMALY":327.2949,"EPHEMERIS_TYPE":0,"CLASSIFICATION_TYPE":"U","NORAD_CAT_ID":45677,"ELEMENT_SET_NO":999,"REV_AT_EPOCH":578,"BSTAR":0.034447444,"MEAN_MOTION_DOT":0.00886935,"MEAN_MOTION_DDOT":0},{"OBJECT_NAME":"STARLINK-1394","OBJECT_ID":"2020-035Y","EPOCH":"2026-02-28T06:15:33.480288","MEAN_MOTION":15.47993389,"ECCENTRICITY":0.00019532,"INCLINATION":53.051,"RA_OF_ASC_NODE":81.7366,"ARG_OF_PERICENTER":73.5911,"MEAN_ANOMALY":286.531,"EPHEMERIS_TYPE":0,"CLASSIFICATION_TYPE":"U","NORAD_CAT_ID":45679,"ELEMENT_SET_NO":999,"REV_AT_EPOCH":31769,"BSTAR":0.0017638915,"MEAN_MOTION_DOT":0.00094393,"MEAN_MOTION_DDOT":0},{"OBJECT_NAME":"STARLINK-1402","OBJECT_ID":"2020-035AE","EPOCH":"2026-02-28T04:53:41.876160","MEAN_MOTION":15.43120429,"ECCENTRICITY":0.0001072,"INCLINATION":53.0493,"RA_OF_ASC_NODE":68.5015,"ARG_OF_PERICENTER":247.1033,"MEAN_ANOMALY":112.9859,"EPHEMERIS_TYPE":0,"CLASSIFICATION_TYPE":"U","NORAD_CAT_ID":45685,"ELEMENT_SET_NO":999,"REV_AT_EPOCH":31788,"BSTAR":0.0013700501,"MEAN_MOTION_DOT":0.00061657,"MEAN_MOTION_DDOT":0},{"OBJECT_NAME":"STARLINK-1404","OBJECT_ID":"2020-035AF","EPOCH":"2026-02-28T02:16:14.101824","MEAN_MOTION":15.30191559,"ECCENTRICITY":0.00016165,"INCLINATION":53.1616,"RA_OF_ASC_NODE":94.265,"ARG_OF_PERICENTER":93.0234,"MEAN_ANOMALY":267.0952,"EPHEMERIS_TYPE":0,"CLASSIFICATION_TYPE":"U","NORAD_CAT_ID":45686,"ELEMENT_SET_NO":999,"REV_AT_EPOCH":31750,"BSTAR":-8.013377e-6,"MEAN_MOTION_DOT":-5.97e-6,"MEAN_MOTION_DDOT":0},{"OBJECT_NAME":"STARLINK-1413","OBJECT_ID":"2020-035AJ","EPOCH":"2026-02-28T05:33:25.329024","MEAN_MOTION":15.30189082,"ECCENTRICITY":0.00013254,"INCLINATION":53.1604,"RA_OF_ASC_NODE":93.5102,"ARG_OF_PERICENTER":77.5049,"MEAN_ANOMALY":282.61,"EPHEMERIS_TYPE":0,"CLASSIFICATION_TYPE":"U","NORAD_CAT_ID":45689,"ELEMENT_SET_NO":999,"REV_AT_EPOCH":31744,"BSTAR":-7.498796e-6,"MEAN_MOTION_DOT":-5.81e-6,"MEAN_MOTION_DDOT":0},{"OBJECT_NAME":"STARLINK-1417","OBJECT_ID":"2020-035AN","EPOCH":"2026-02-28T03:31:25.598784","MEAN_MOTION":15.118873,"ECCENTRICITY":0.00029338,"INCLINATION":53.0511,"RA_OF_ASC_NODE":97.5405,"ARG_OF_PERICENTER":209.2078,"MEAN_ANOMALY":150.875,"EPHEMERIS_TYPE":0,"CLASSIFICATION_TYPE":"U","NORAD_CAT_ID":45693,"ELEMENT_SET_NO":999,"REV_AT_EPOCH":31745,"BSTAR":0.0011148525,"MEAN_MOTION_DOT":0.00019057,"MEAN_MOTION_DDOT":0},{"OBJECT_NAME":"STARLINK-1420","OBJECT_ID":"2020-035AQ","EPOCH":"2026-02-28T06:00:02.000160","MEAN_MOTION":15.51579035,"ECCENTRICITY":0.00033939,"INCLINATION":53.0543,"RA_OF_ASC_NODE":67.885,"ARG_OF_PERICENTER":56.833,"MEAN_ANOMALY":138.1714,"EPHEMERIS_TYPE":0,"CLASSIFICATION_TYPE":"U","NORAD_CAT_ID":45695,"ELEMENT_SET_NO":999,"REV_AT_EPOCH":598,"BSTAR":0.0014030761,"MEAN_MOTION_DOT":0.0008506,"MEAN_MOTION_DDOT":0},{"OBJECT_NAME":"STARLINK-1422","OBJECT_ID":"2020-035AR","EPOCH":"2026-02-28T05:44:02.046048","MEAN_MOTION":15.3018889,"ECCENTRICITY":0.00012512,"INCLINATION":53.1605,"RA_OF_ASC_NODE":93.478,"ARG_OF_PERICENTER":90.2346,"MEAN_ANOMALY":269.8798,"EPHEMERIS_TYPE":0,"CLASSIFICATION_TYPE":"U","NORAD_CAT_ID":45696,"ELEMENT_SET_NO":999,"REV_AT_EPOCH":31752,"BSTAR":4.0469346e-5,"MEAN_MOTION_DOT":8.39e-6,"MEAN_MOTION_DDOT":0},{"OBJECT_NAME":"STARLINK-1351","OBJECT_ID":"2020-035AS","EPOCH":"2026-02-28T07:30:46.749312","MEAN_MOTION":15.50156107,"ECCENTRICITY":0.00026371,"INCLINATION":53.0537,"RA_OF_ASC_NODE":66.704,"ARG_OF_PERICENTER":71.2016,"MEAN_ANOMALY":288.9278,"EPHEMERIS_TYPE":0,"CLASSIFICATION_TYPE":"U","NORAD_CAT_ID":45697,"ELEMENT_SET_NO":999,"REV_AT_EPOCH":31791,"BSTAR":0.00061797841,"MEAN_MOTION_DOT":0.00035124,"MEAN_MOTION_DDOT":0},{"OBJECT_NAME":"STARLINK-1398","OBJECT_ID":"2020-035AU","EPOCH":"2026-02-28T06:00:02.000160","MEAN_MOTION":15.88944917,"ECCENTRICITY":0.00044025,"INCLINATION":53.0393,"RA_OF_ASC_NODE":347.4251,"ARG_OF_PERICENTER":105.8907,"MEAN_ANOMALY":33.1346,"EPHEMERIS_TYPE":0,"CLASSIFICATION_TYPE":"U","NORAD_CAT_ID":45699,"ELEMENT_SET_NO":999,"REV_AT_EPOCH":609,"BSTAR":0.0010383433,"MEAN_MOTION_DOT":0.00312352,"MEAN_MOTION_DDOT":0}]
