STARLINK-1453           
1 45670U 20035P   26059.23574140  .00092740  00000+0  16061-2 0  9997
2 45670  53.0489  58.7816 0008431   6.2824 353.8289 15.50137972317904
STARLINK-1454           
1 45671U 20035Q   26059.07819584  .00084196  00000+0  15327-2 0  9994
2 45671  53.0514  98.9689 0008471  19.9732 340.1606 15.48764290317426
STARLINK-1456           
1 45673U 20035S   26059.07381576  .00025018  00000+0  45498-3 0  9992
2 45673  53.0496  92.4482 0001601  97.0613 263.0577 15.49398270317534
STARLINK-1457           
1 45674U 20035T   26059.28927372  .00104880  00000+0  65772-3 0  9998
2 45674  53.0478  69.4109 0010066  31.5997 328.5625 15.75930693317843
STARLINK-1458           
1 45675U 20035U   26059.15351953  .00083534  00000+0  19348-2 0  9990
2 45675  53.0525 100.7427 0005882  42.6984 317.4476 15.41728130317382
STARLINK-1460           
1 45676U 20035V   26059.25002315  .00053505  00000+0  24191-2 0  9994
2 45676  53.1137 108.4405 0001931  90.7729  53.8691 15.20438461  5832
STARLINK-1392           
1 45677U 20035W   26059.25002315  .00886935  00000+0  34447-1 0  9990
2 45677  53.1265 108.4870 0001199  92.1637 327.2949 15.23117289  5784
STARLINK-1394           
1 45679U 20035Y   26059.26080417  .00094393  00000+0  17639-2 0  9996
2 45679  53.0510  81.7366 0001953  73.5911 286.5310 15.47993389317691
STARLINK-1402           
1 45685U 20035AE  26059.20395690  .00061657  00000+0  13701-2 0  9992
2 45685  53.0493  68.5015 0001072 247.1033 112.9859 15.43120429317882
STARLINK-1404           
1 45686U 20035AF  26059.09460766 -.00000597  00000+0 -80134-5 0  9992
2 45686  53.1616  94.2650 0001616  93.0234 267.0952 15.30191559317500
STARLINK-1413           
1 45689U 20035AJ  26059.23154316 -.00000581  00000+0 -74988-5 0  9995
2 45689  53.1604  93.5102 0001325  77.5049 282.6100 15.30189082317441
STARLINK-1417           
1 45693U 20035AN  26059.14682406  .00019057  00000+0  11149-2 0  9999
2 45693  53.0511  97.5405 0002933 209.2078 150.8750 15.11887300317459
STARLINK-1420           
1 45695U 20035AQ  26059.25002315  .00085060  00000+0  14031-2 0  9998
2 45695  53.0543  67.8850 0003393  56.8330 138.1714 15.51579035  5986
STARLINK-1422           
1 45696U 20035AR  26059.23891257  .00000839  00000+0  40469-4 0  9995
2 45696  53.1605  93.4780 0001251  90.2346 269.8798 15.30188890317526
STARLINK-1351           
1 45697U 20035AS  26059.31304108  .00035124  00000+0  61798-3 0  9991
2 45697  53.0537  66.7040 0002637  71.2016 288.9278 15.50156107317910
STARLINK-1398           
1 45699U 20035AU  26059.25002315  .00312352  00000+0  10383-2 0  9995
2 45699  53.0393 347.4251 0004402 105.8907  33.1346 15.88944917  6095
